start=new Date('2022-09-21T00:00:00.000Z').valueOf();
sats=[{"PERIAPSIS":"545.962","GP_ID":"213123363","PERIOD":"95.592","MEAN_ELEMENT_THEORY":"SGP4","SEMIMAJOR_AXIS":"6925.335","MEAN_MOTION_DOT":"0.00003145","COUNTRY_CODE":"US","ECCENTRICITY":"0.00017880","OBJECT_ID":"2021-038AS","TLE_LINE1":"1 48393U 21038AS  22263.73455109  .00003145  00000-0  22993-3 0  9991","OBJECT_NAME":"STARLINK-2602","ARG_OF_PERICENTER":"50.0265","CENTER_NAME":"EARTH","REF_FRAME":"TEME","SITE":"AFETR","RCS_SIZE":"LARGE","EPOCH":"2022-09-20T17:37:45.214176","APOAPSIS":"548.438","MEAN_MOTION_DDOT":"0.0000000000000","TIME_SYSTEM":"UTC","INCLINATION":"53.0533","ELEMENT_SET_NO":"999","MEAN_MOTION":"15.06404355","FILE":"3578945","TLE_LINE2":"2 48393  53.0533 264.7149 0001788  50.0265 310.0881 15.06404355 77719","BSTAR":"0.00022993000000","MEAN_ANOMALY":"310.0881","DECAY_DATE":null,"CLASSIFICATION_TYPE":"U","OBJECT_TYPE":"PAYLOAD","NORAD_CAT_ID":"48393","RA_OF_ASC_NODE":"264.7149","REV_AT_EPOCH":"7771","LAUNCH_DATE":"2021-05-04","EPHEMERIS_TYPE":"0"},{"BSTAR":"0.00010145000000","TLE_LINE2":"2 48394  53.0523 264.7414 0001461  71.4576 288.6571 15.06407275 77714","CLASSIFICATION_TYPE":"U","OBJECT_TYPE":"PAYLOAD","RA_OF_ASC_NODE":"264.7414","NORAD_CAT_ID":"48394","MEAN_ANOMALY":"288.6571","DECAY_DATE":null,"REV_AT_EPOCH":"7771","LAUNCH_DATE":"2021-05-04","EPHEMERIS_TYPE":"0","RCS_SIZE":"LARGE","APOAPSIS":"548.203","EPOCH":"2022-09-20T17:32:25.519488","MEAN_MOTION_DDOT":"0.0000000000000","TIME_SYSTEM":"UTC","INCLINATION":"53.0523","MEAN_MOTION":"15.06407275","FILE":"3578945","ELEMENT_SET_NO":"999","CENTER_NAME":"EARTH","OBJECT_ID":"2021-038AT","TLE_LINE1":"1 48394U 21038AT  22263.73085092  .00001230  00000-0  10145-3 0  9991","OBJECT_NAME":"STARLINK-2573","ARG_OF_PERICENTER":"71.4576","REF_FRAME":"TEME","SITE":"AFETR","PERIAPSIS":"546.179","GP_ID":"213122111","PERIOD":"95.592","SEMIMAJOR_AXIS":"6925.326","MEAN_ELEMENT_THEORY":"SGP4","COUNTRY_CODE":"US","ECCENTRICITY":"0.00014610","MEAN_MOTION_DOT":"0.00001230"},{"SITE":"AFETR","OBJECT_ID":"2021-038AU","TLE_LINE1":"1 48395U 21038AU  22263.31073094  .00000892  00000-0  78789-4 0  9997","ARG_OF_PERICENTER":"82.8591","OBJECT_NAME":"STARLINK-2574","CENTER_NAME":"EARTH","REF_FRAME":"TEME","PERIOD":"95.592","MEAN_ELEMENT_THEORY":"SGP4","SEMIMAJOR_AXIS":"6925.337","MEAN_MOTION_DOT":"0.00000892","COUNTRY_CODE":"US","ECCENTRICITY":"0.00013830","PERIAPSIS":"546.244","GP_ID":"213071362","REV_AT_EPOCH":"7764","LAUNCH_DATE":"2021-05-04","EPHEMERIS_TYPE":"0","TLE_LINE2":"2 48395  53.0534 267.2522 0001383  82.8591 277.2555 15.06403924 77646","BSTAR":"0.00007878900000","MEAN_ANOMALY":"277.2555","DECAY_DATE":null,"CLASSIFICATION_TYPE":"U","OBJECT_TYPE":"PAYLOAD","RA_OF_ASC_NODE":"267.2522","NORAD_CAT_ID":"48395","INCLINATION":"53.0534","ELEMENT_SET_NO":"999","MEAN_MOTION":"15.06403924","FILE":"3578736","MEAN_MOTION_DDOT":"0.0000000000000","RCS_SIZE":"LARGE","APOAPSIS":"548.159","EPOCH":"2022-09-20T07:27:27.153216","TIME_SYSTEM":"UTC"},{"PERIOD":"95.593","MEAN_ELEMENT_THEORY":"SGP4","SEMIMAJOR_AXIS":"6925.375","COUNTRY_CODE":"US","ECCENTRICITY":"0.00016830","MEAN_MOTION_DOT":"0.00000616","PERIAPSIS":"546.075","GP_ID":"213122612","SITE":"AFETR","CENTER_NAME":"EARTH","TLE_LINE1":"1 48396U 21038AV  22263.72717065  .00000616  00000-0  60293-4 0  9991","OBJECT_ID":"2021-038AV","ARG_OF_PERICENTER":"77.8539","OBJECT_NAME":"STARLINK-2575","REF_FRAME":"TEME","INCLINATION":"53.0532","MEAN_MOTION":"15.06391213","FILE":"3578945","ELEMENT_SET_NO":"999","MEAN_MOTION_DDOT":"0.0000000000000","RCS_SIZE":"LARGE","APOAPSIS":"548.406","EPOCH":"2022-09-20T17:27:07.544160","TIME_SYSTEM":"UTC","REV_AT_EPOCH":"7771","EPHEMERIS_TYPE":"0","LAUNCH_DATE":"2021-05-04","BSTAR":"0.00006029300000","TLE_LINE2":"2 48396  53.0532 264.7593 0001683  77.8539 282.2638 15.06391213 77717","CLASSIFICATION_TYPE":"U","RA_OF_ASC_NODE":"264.7593","OBJECT_TYPE":"PAYLOAD","NORAD_CAT_ID":"48396","MEAN_ANOMALY":"282.2638","DECAY_DATE":null},{"INCLINATION":"53.0522","ELEMENT_SET_NO":"999","FILE":"3578945","MEAN_MOTION":"15.06398231","RCS_SIZE":"LARGE","APOAPSIS":"548.196","MEAN_MOTION_DDOT":"0.0000000000000","EPOCH":"2022-09-20T17:21:48.890592","TIME_SYSTEM":"UTC","EPHEMERIS_TYPE":"0","LAUNCH_DATE":"2021-05-04","REV_AT_EPOCH":"7771","TLE_LINE2":"2 48397  53.0522 264.7732 0001411  87.7495 272.3655 15.06398231 77718","BSTAR":"0.00005824500000","DECAY_DATE":null,"MEAN_ANOMALY":"272.3655","NORAD_CAT_ID":"48397","OBJECT_TYPE":"PAYLOAD","RA_OF_ASC_NODE":"264.7732","CLASSIFICATION_TYPE":"U","MEAN_ELEMENT_THEORY":"SGP4","SEMIMAJOR_AXIS":"6925.354","PERIOD":"95.592","MEAN_MOTION_DOT":"0.00000586","ECCENTRICITY":"0.00014110","COUNTRY_CODE":"US","PERIAPSIS":"546.242","GP_ID":"213122863","SITE":"AFETR","OBJECT_NAME":"STARLINK-2590","ARG_OF_PERICENTER":"87.7495","OBJECT_ID":"2021-038AW","TLE_LINE1":"1 48397U 21038AW  22263.72348253  .00000586  00000-0  58245-4 0  9991","CENTER_NAME":"EARTH","REF_FRAME":"TEME"},{"RCS_SIZE":"LARGE","APOAPSIS":"548.281","MEAN_MOTION_DDOT":"0.0000000000000","EPOCH":"2022-09-20T17:16:31.633248","TIME_SYSTEM":"UTC","FILE":"3578945","MEAN_MOTION":"15.06394648","ELEMENT_SET_NO":"999","INCLINATION":"53.0547","RA_OF_ASC_NODE":"264.7825","OBJECT_TYPE":"PAYLOAD","NORAD_CAT_ID":"48398","CLASSIFICATION_TYPE":"U","DECAY_DATE":null,"MEAN_ANOMALY":"295.2867","BSTAR":"0.00009109800000","TLE_LINE2":"2 48398  53.0547 264.7825 0001517  64.8279 295.2867 15.06394648 77719","EPHEMERIS_TYPE":"0","LAUNCH_DATE":"2021-05-04","REV_AT_EPOCH":"7771","GP_ID":"213121612","PERIAPSIS":"546.179","ECCENTRICITY":"0.00015170","COUNTRY_CODE":"US","MEAN_MOTION_DOT":"0.00001075","MEAN_ELEMENT_THEORY":"SGP4","SEMIMAJOR_AXIS":"6925.365","PERIOD":"95.592","REF_FRAME":"TEME","CENTER_NAME":"EARTH","OBJECT_NAME":"STARLINK-2588","ARG_OF_PERICENTER":"64.8279","TLE_LINE1":"1 48398U 21038AX  22263.71981057  .00001075  00000-0  91098-4 0  9993","OBJECT_ID":"2021-038AX","SITE":"AFETR"},{"OBJECT_TYPE":"PAYLOAD","RA_OF_ASC_NODE":"265.9887","NORAD_CAT_ID":"48399","CLASSIFICATION_TYPE":"U","DECAY_DATE":null,"MEAN_ANOMALY":"288.5582","BSTAR":"0.00003948500000","TLE_LINE2":"2 48399  53.0535 265.9887 0001548  71.5575 288.5582 15.06387788 77666","LAUNCH_DATE":"2021-05-04","EPHEMERIS_TYPE":"0","REV_AT_EPOCH":"7766","APOAPSIS":"548.323","RCS_SIZE":"LARGE","EPOCH":"2022-09-20T10:49:02.983008","MEAN_MOTION_DDOT":"0.0000000000000","TIME_SYSTEM":"UTC","FILE":"3578736","MEAN_MOTION":"15.06387788","ELEMENT_SET_NO":"999","INCLINATION":"53.0535","REF_FRAME":"TEME","CENTER_NAME":"EARTH","ARG_OF_PERICENTER":"71.5575","OBJECT_NAME":"STARLINK-2587","TLE_LINE1":"1 48399U 21038AY  22263.45072897  .00000306  00000-0  39485-4 0  9996","OBJECT_ID":"2021-038AY","SITE":"AFETR","GP_ID":"213070863","PERIAPSIS":"546.179","ECCENTRICITY":"0.00015480","COUNTRY_CODE":"US","MEAN_MOTION_DOT":"0.00000306","MEAN_ELEMENT_THEORY":"SGP4","SEMIMAJOR_AXIS":"6925.386","PERIOD":"95.593"},{"RCS_SIZE":"LARGE","MEAN_MOTION_DDOT":"0.0000000000000","APOAPSIS":"548.424","TIME_SYSTEM":"UTC","EPOCH":"2022-09-20T17:05:53.224512","INCLINATION":"53.0524","FILE":"3578945","MEAN_MOTION":"15.06399081","ELEMENT_SET_NO":"999","BSTAR":"0.00009696200000","TLE_LINE2":"2 48400  53.0524 264.8246 0001744  70.5981 289.5196 15.06399081 76493","RA_OF_ASC_NODE":"264.8246","OBJECT_TYPE":"PAYLOAD","NORAD_CAT_ID":"48400","CLASSIFICATION_TYPE":"U","DECAY_DATE":null,"MEAN_ANOMALY":"289.5196","LAUNCH_DATE":"2021-05-04","EPHEMERIS_TYPE":"0","REV_AT_EPOCH":"7649","PERIAPSIS":"546.009","GP_ID":"213123113","SEMIMAJOR_AXIS":"6925.351","MEAN_ELEMENT_THEORY":"SGP4","PERIOD":"95.592","ECCENTRICITY":"0.00017440","COUNTRY_CODE":"US","MEAN_MOTION_DOT":"0.00001163","CENTER_NAME":"EARTH","ARG_OF_PERICENTER":"70.5981","OBJECT_NAME":"STARLINK-2576","TLE_LINE1":"1 48400U 21038AZ  22263.71242158  .00001163  00000-0  96962-4 0  9992","OBJECT_ID":"2021-038AZ","REF_FRAME":"TEME","SITE":"AFETR"},{"SEMIMAJOR_AXIS":"6925.366","MEAN_ELEMENT_THEORY":"SGP4","PERIOD":"95.592","MEAN_MOTION_DOT":"-0.00000459","ECCENTRICITY":"0.00017300","COUNTRY_CODE":"US","PERIAPSIS":"546.032","GP_ID":"213070374","SITE":"AFETR","ARG_OF_PERICENTER":"60.2335","OBJECT_NAME":"STARLINK-2571","OBJECT_ID":"2021-038BA","TLE_LINE1":"1 48401U 21038BA  22263.41755177 -.00000459  00000-0 -11924-4 0  9994","CENTER_NAME":"EARTH","REF_FRAME":"TEME","INCLINATION":"53.0535","ELEMENT_SET_NO":"999","FILE":"3578736","MEAN_MOTION":"15.06394444","APOAPSIS":"548.429","RCS_SIZE":"LARGE","TIME_SYSTEM":"UTC","MEAN_MOTION_DDOT":"0.0000000000000","EPOCH":"2022-09-20T10:01:16.472928","LAUNCH_DATE":"2021-05-04","EPHEMERIS_TYPE":"0","REV_AT_EPOCH":"7644","TLE_LINE2":"2 48401  53.0535 266.1553 0001730  60.2335 299.8826 15.06394444 76443","BSTAR":"-0.00001192400000","DECAY_DATE":null,"MEAN_ANOMALY":"299.8826","OBJECT_TYPE":"PAYLOAD","RA_OF_ASC_NODE":"266.1553","NORAD_CAT_ID":"48401","CLASSIFICATION_TYPE":"U"},{"SITE":"AFETR","CENTER_NAME":"EARTH","ARG_OF_PERICENTER":"59.9454","OBJECT_NAME":"STARLINK-2560","TLE_LINE1":"1 48402U 21038BB  22263.70781004  .00000163  00000-0  29853-4 0  9995","OBJECT_ID":"2021-038BB","REF_FRAME":"TEME","SEMIMAJOR_AXIS":"6925.364","MEAN_ELEMENT_THEORY":"SGP4","PERIOD":"95.592","ECCENTRICITY":"0.00015240","COUNTRY_CODE":"US","MEAN_MOTION_DOT":"0.00000163","PERIAPSIS":"546.173","GP_ID":"213122112","LAUNCH_DATE":"2021-05-04","EPHEMERIS_TYPE":"0","REV_AT_EPOCH":"7649","BSTAR":"0.00002985300000","TLE_LINE2":"2 48402  53.0548 264.8329 0001524  59.9454 300.1686 15.06395113 76491","OBJECT_TYPE":"PAYLOAD","NORAD_CAT_ID":"48402","RA_OF_ASC_NODE":"264.8329","CLASSIFICATION_TYPE":"U","DECAY_DATE":null,"MEAN_ANOMALY":"300.1686","INCLINATION":"53.0548","FILE":"3578945","MEAN_MOTION":"15.06395113","ELEMENT_SET_NO":"999","TIME_SYSTEM":"UTC","RCS_SIZE":"LARGE","APOAPSIS":"548.284","MEAN_MOTION_DDOT":"0.0000000000000","EPOCH":"2022-09-20T16:59:14.787456"}];
